NORAD_CAT_ID,OBJECT_NAME,OBJECT_TYPE,EPOCH,MEAN_MOTION,ECCENTRICITY,INCLINATION,RA_OF_ASC_NODE,ARG_OF_PERICENTER,MEAN_ANOMALY,BSTAR,MEAN_MOTION_DOT,MEAN_MOTION_DDOT,TLE_LINE0,TLE_LINE1,TLE_LINE2,SEMIMAJOR_AXIS,PERIOD,APOGEE,PERIGEE,DECAYED
52568.0,STARLINK-3930,PAYLOAD,2023-02-09 11:11:11,15.08835224,0.000126,53.2167,125.959,94.5597,265.5539,-0.00010199,-1.91e-05,0.0,0 STARLINK-3930,1 52568U 22051AM  23040.46610692 -.00001910  00000-0 -10199-3 0  9995,2 52568  53.2167 125.9590 0001260  94.5597 265.5539 15.08835224 41863,6917.895,95.438,540.632,538.888,0.0
52568.0,STARLINK-3930,PAYLOAD,2023-02-09 22:18:53,15.08840889,0.0001001,53.2163,123.8834,94.3714,265.7393,0.00012054,1.631e-05,0.0,0 STARLINK-3930,1 52568U 22051AM  23040.92978381  .00001631  00000-0  12054-3 0  9998,2 52568  53.2163 123.8834 0001001  94.3714 265.7393 15.08840889 42009,6917.878,95.437,540.435,539.05,0.0
52568.0,STARLINK-3930,PAYLOAD,2023-02-10 17:23:31,15.08843527,0.0001544,53.2168,120.3142,98.3329,261.7839,0.00027648,4.115e-05,0.0,0 STARLINK-3930,1 52568U 22051AM  23041.72467056  .00004115  00000-0  27648-3 0  9994,2 52568  53.2168 120.3142 0001544  98.3329 261.7839 15.08843527 42122,6917.87,95.437,540.803,538.666,0.0
52568.0,STARLINK-3930,PAYLOAD,2023-02-10 22:09:41,15.08826849,2.13e-05,53.2158,119.4192,181.2151,178.884,-9.6202e-05,-1.817e-05,0.0,0 STARLINK-3930,1 52568U 22051AM  23041.92339272 -.00001817  00000-0 -96202-4 0  9995,2 52568  53.2158 119.4192 0000213 181.2151 178.8840 15.08826849 42153,6917.921,95.438,539.933,539.638,0.0
52568.0,STARLINK-3930,PAYLOAD,2023-02-11 12:28:09,15.08852578,0.0001353,53.2157,116.7428,85.5682,274.5465,0.00051397,7.904e-05,0.0,0 STARLINK-3930,1 52568U 22051AM  23042.51955191  .00007904  00000-0  51397-3 0  9991,2 52568  53.2157 116.7428 0001353  85.5682 274.5465 15.08852578 42240,6917.842,95.437,540.643,538.771,0.0
52568.0,STARLINK-3930,PAYLOAD,2023-02-11 17:14:18,15.08873506,0.0001322,53.2156,115.8513,78.0604,282.0537,0.0012614,0.00019863,0.0,0 STARLINK-3930,1 52568U 22051AM  23042.71826857  .00019863  00000-0  12614-2 0  9994,2 52568  53.2156 115.8513 0001322  78.0604 282.0537 15.08873506 42205,6917.778,95.435,540.558,538.728,0.0
52568.0,STARLINK-3930,PAYLOAD,2023-02-11 22:00:28,15.0883683,3.48e-05,53.2148,114.9588,116.6037,243.499,-6.0312e-05,-1.247e-05,0.0,0 STARLINK-3930,1 52568U 22051AM  23042.91699249 -.00001247  00000-0 -60312-4 0  9998,2 52568  53.2148 114.9588 0000348 116.6037 243.4990 15.08836830 42308,6917.89,95.438,539.996,539.514,0.0
52568.0,STARLINK-3930,PAYLOAD,2023-02-12 12:18:56,15.08866175,0.0001306,53.2147,112.2825,93.7334,266.3807,0.0034773,0.00055529,0.0,0 STARLINK-3930,1 52568U 22051AM  23043.51315492  .00055529  00000-0  34773-2 0  9990,2 52568  53.2147 112.2825 0001306  93.7334 266.3807 15.08866175 42320,6917.8,95.436,540.569,538.762,0.0
52568.0,STARLINK-3930,PAYLOAD,2023-02-12 13:54:19,15.08867521,0.0001354,53.2149,111.985,94.4119,265.7028,0.0023274,0.00036975,0.0,0 STARLINK-3930,1 52568U 22051AM  23043.57939356  .00036975  00000-0  23274-2 0  9995,2 52568  53.2149 111.9850 0001354  94.4119 265.7028 15.08867521 42401,6917.796,95.436,540.598,538.725,0.0
52568.0,STARLINK-3930,PAYLOAD,2023-02-12 21:51:15,15.08854634,0.0001349,53.2147,110.4981,103.8931,256.2211,0.0011486,0.00018047,0.0,0 STARLINK-3930,1 52568U 22051AM  23043.91059436  .00018047  00000-0  11486-2 0  9997,2 52568  53.2147 110.4981 0001349 103.8931 256.2211 15.08854634 42454,6917.836,95.437,540.634,538.767,0.0
52568.0,STARLINK-3930,PAYLOAD,2023-02-13 10:34:20,15.08871181,0.0002349,53.2155,108.1199,99.2355,260.8903,0.0028104,0.00044763,0.0,0 STARLINK-3930,1 52568U 22051AM  23044.44051501  .00044763  00000-0  28104-2 0  9990,2 52568  53.2155 108.1199 0002349  99.2355 260.8903 15.08871181 42463,6917.785,95.436,541.275,538.025,0.0
52568.0,STARLINK-3930,PAYLOAD,2023-02-13 15:20:29,15.08864735,0.0001594,53.2154,107.2272,102.415,257.7021,0.0018737,0.00029678,0.0,0 STARLINK-3930,1 52568U 22051AM  23044.63923251  .00029678  00000-0  18737-2 0  9990,2 52568  53.2154 107.2272 0001594 102.4150 257.7021 15.08864735 42569,6917.805,95.436,540.772,538.567,0.0
52568.0,STARLINK-3930,PAYLOAD,2023-02-14 04:03:35,15.08850714,0.0002381,53.2162,104.8488,86.143,273.9834,0.0020266,0.00032123,0.0,0 STARLINK-3930,1 52568U 22051AM  23045.16916190  .00032123  00000-0  20266-2 0  9992,2 52568  53.2162 104.8488 0002381  86.1430 273.9834 15.08850714 42647,6917.848,95.437,541.36,538.066,0.0
52568.0,STARLINK-3930,PAYLOAD,2023-02-14 10:25:08,15.08854176,0.0001403,53.2157,103.6588,94.5184,265.5969,0.0022729,0.00036085,0.0,0 STARLINK-3930,1 52568U 22051AM  23045.43412098  .00036085  00000-0  22729-2 0  9997,2 52568  53.2157 103.6588 0001403  94.5184 265.5969 15.08854176 42688,6917.837,95.437,540.673,538.731,0.0
52568.0,STARLINK-3930,PAYLOAD,2023-02-14 15:11:17,15.08861988,0.0001229,53.2158,102.7667,93.4164,266.6969,0.002619,0.00041665,0.0,0 STARLINK-3930,1 52568U 22051AM  23045.63284018  .00041665  00000-0  26190-2 0  9994,2 52568  53.2158 102.7667 0001229  93.4164 266.6969 15.08861988 42646,6917.813,95.436,540.528,538.828,0.0
52568.0,STARLINK-3930,PAYLOAD,2023-02-15 07:05:08,15.08864944,0.000122,53.2163,99.7922,117.8369,242.2747,0.0018778,0.00029744,0.0,0 STARLINK-3930,1 52568U 22051AM  23046.29523890  .00029744  00000-0  18778-2 0  9998,2 52568  53.2163  99.7922 0001220 117.8369 242.2747 15.08864944 42818,6917.804,95.436,540.513,538.825,0.0
52568.0,STARLINK-3930,PAYLOAD,2023-02-15 08:40:31,15.08868253,0.0001242,53.2163,99.4949,117.9135,242.1983,0.0022131,0.00035137,0.0,0 STARLINK-3930,1 52568U 22051AM  23046.36147831  .00035137  00000-0  22131-2 0  9994,2 52568  53.2163  99.4949 0001242 117.9135 242.1983 15.08868253 42751,6917.794,95.436,540.518,538.8,0.0
52568.0,STARLINK-3930,PAYLOAD,2023-02-15 19:48:13,15.08848615,0.0002557,53.217,97.4137,79.8596,280.2685,0.0009274,0.00014506,0.0,0 STARLINK-3930,1 52568U 22051AM  23046.82516168  .00014506  00000-0  92740-3 0  9999,2 52568  53.2170  97.4137 0002557  79.8596 280.2685 15.08848615 42890,6917.854,95.437,541.488,537.95,0.0
52568.0,STARLINK-3930,PAYLOAD,2023-02-16 10:06:41,15.08859502,0.0001318,53.2175,94.7409,106.6198,253.4939,0.0007391,0.00011501,0.0,0 STARLINK-3930,1 52568U 22051AM  23047.42131358  .00011501  00000-0  73910-3 0  9990,2 52568  53.2175  94.7409 0001318 106.6198 253.4939 15.08859502 42912,6917.821,95.436,540.598,538.774,0.0
52568.0,STARLINK-3930,PAYLOAD,2023-02-16 19:39:01,15.08836494,0.0003225,53.2159,92.9528,68.9936,291.1401,0.00015196,2.13e-05,0.0,0 STARLINK-3930,1 52568U 22051AM  23047.81876385  .00002130  00000-0  15196-3 0  9999,2 52568  53.2159  92.9528 0003225  68.9936 291.1401 15.08836494 42979,6917.891,95.438,541.987,537.525,0.0
52568.0,STARLINK-3930,PAYLOAD,2023-02-17 03:35:56,15.08819113,0.0001275,53.2162,91.4626,38.8639,321.2445,0.00023452,3.444e-05,0.0,0 STARLINK-3930,1 52568U 22051AM  23048.14996340  .00003444  00000-0  23452-3 0  9993,2 52568  53.2162  91.4626 0001275  38.8639 321.2445 15.08819113 43091,6917.944,95.439,540.691,538.927,0.0
52568.0,STARLINK-3930,PAYLOAD,2023-02-17 13:08:15,15.08833501,0.0001546,53.216,89.6831,71.3746,288.7414,0.0014327,0.00022583,0.0,0 STARLINK-3930,1 52568U 22051AM  23048.54740618  .00022583  00000-0  14327-2 0  9997,2 52568  53.2160  89.6831 0001546  71.3746 288.7414 15.08833501 43155,6917.9,95.438,540.835,538.696,0.0
52568.0,STARLINK-3930,PAYLOAD,2023-02-17 19:29:48,15.08823602,0.0002085,53.2158,88.4912,72.273,287.849,0.00035454,5.356e-05,0.0,0 STARLINK-3930,1 52568U 22051AM  23048.81237195  .00005356  00000-0  35454-3 0  9992,2 52568  53.2158  88.4912 0002085  72.2730 287.8490 15.08823602 43190,6917.931,95.439,541.238,538.353,0.0
52568.0,STARLINK-3930,PAYLOAD,2023-02-18 11:23:40,15.08839868,0.0001788,53.216,85.5201,72.8067,287.3121,0.0011479,0.00018028,0.0,0 STARLINK-3930,1 52568U 22051AM  23049.47477565  .00018028  00000-0  11479-2 0  9992,2 52568  53.2160  85.5201 0001788  72.8067 287.3121 15.08839868 43221,6917.881,95.438,540.983,538.509,0.0
52568.0,STARLINK-3930,PAYLOAD,2023-02-18 19:20:36,15.08843309,0.0001686,53.2152,84.0334,80.9955,279.1228,0.00087342,0.00013641,0.0,0 STARLINK-3930,1 52568U 22051AM  23049.80597555  .00013641  00000-0  87342-3 0  9990,2 52568  53.2152  84.0334 0001686  80.9955 279.1228 15.08843309 43341,6917.87,95.437,540.902,538.569,0.0
52568.0,STARLINK-3930,PAYLOAD,2023-02-19 09:39:03,15.08866617,0.0001466,53.2158,81.3571,78.9503,281.1654,0.0013101,0.00020639,0.0,0 STARLINK-3930,1 52568U 22051AM  23050.40212749  .00020639  00000-0  13101-2 0  9993,2 52568  53.2158  81.3571 0001466  78.9503 281.1654 15.08866617 43367,6917.799,95.436,540.678,538.65,0.0
52568.0,STARLINK-3930,PAYLOAD,2023-02-19 19:11:22,15.08853196,0.0001648,53.2156,79.5725,78.2741,281.8436,0.0010853,0.00017033,0.0,0 STARLINK-3930,1 52568U 22051AM  23050.79956603  .00017033  00000-0  10853-2 0  9994,2 52568  53.2156  79.5725 0001648  78.2741 281.8436 15.08853196 43491,6917.84,95.437,540.845,538.565,0.0
52568.0,STARLINK-3930,PAYLOAD,2023-02-20 07:54:27,15.08848673,0.0001323,53.2159,77.1918,87.3951,272.7192,0.0001442,2.008e-05,0.0,0 STARLINK-3930,1 52568U 22051AM  23051.32948376  .00002008  00000-0  14420-3 0  9993,2 52568  53.2159  77.1918 0001323  87.3951 272.7192 15.08848673 43577,6917.854,95.437,540.634,538.804,0.0
52568.0,STARLINK-3930,PAYLOAD,2023-02-20 11:05:13,15.08845818,0.000145,53.2157,76.5961,92.9804,267.1354,0.00028194,4.203e-05,0.0,0 STARLINK-3930,1 52568U 22051AM  23051.46196406  .00004203  00000-0  28194-3 0  9999,2 52568  53.2157  76.5961 0001450  92.9804 267.1354 15.08845818 43527,6917.863,95.437,540.731,538.725,0.0
52568.0,STARLINK-3930,PAYLOAD,2023-02-20 19:02:09,15.08844089,0.0001565,53.217,75.1102,92.8027,267.3144,5.8998e-05,6.51e-06,0.0,0 STARLINK-3930,1 52568U 22051AM  23051.79316577  .00000651  00000-0  58998-4 0  9997,2 52568  53.2170  75.1102 0001565  92.8027 267.3144 15.08844089 43648,6917.868,95.437,540.816,538.65,0.0
